WORLDVIEW-3 (WV-3)      
1 40115U 14048A   26065.81041791  .00001433  00000+0  17505-3 0  9999
2 40115  97.8639 142.0415 0000334   9.6143 350.5078 14.84827466626715
GAOFEN-2                
1 40118U 14049A   26065.87479765  .00001134  00000+0  15414-3 0  9990
2 40118  98.0228 130.1352 0006852 194.5415 165.5600 14.80766989624092
YAOGAN-21               
1 40143U 14053A   26065.84377326  .00004728  00000+0  19270-3 0  9996
2 40143  97.1621 110.5077 0010184  94.9387 265.3014 15.24869362639358
YAOGAN-22               
1 40275U 14063A   26065.82089519 -.00000013  00000+0  89185-4 0  9992
2 40275 100.7532 215.4606 0006680  64.1128 296.0671 13.15526869546354
ASNARO                  
1 40298U 14070A   26065.82831483  .00008101  00000+0  38204-3 0  9990
2 40298  97.3514 144.6659 0007257 151.1584 209.0053 15.19709831628464
YAOGAN-24               
1 40310U 14072A   26065.86399302  .00001324  00000+0  19874-3 0  9992
2 40310  98.1303 202.4398 0012217 228.0161 132.0009 14.76222749608626
CBERS 4                 
1 40336U 14079A   26065.85526372  .00000026  00000+0  23900-4 0  9999
2 40336  98.3486 125.9583 0000708  58.7342 301.3914 14.35411704589275
YAOGAN-26               
1 40362U 14088A   26065.88451412  .00031440  00000+0  71138-3 0  9992
2 40362  97.0667  68.7925 0007230  72.8422 287.3618 15.43056662621907
SMAP                    
1 40376U 15003A   26065.78928796  .00000789  00000+0  16182-3 0  9998
2 40376  98.1312  74.3184 0001321 112.5858 247.5484 14.63334850592647
KOMPSAT-3A              
1 40536U 15014A   26065.88047028  .00030787  00000+0  53388-3 0  9999
2 40536  97.6875  50.1986 0063177 187.6861 172.3427 15.48553566605951
SENTINEL-2A             
1 40697U 15028A   26056.18000490  .00000159  00000+0  76852-4 0  9999
2 40697  98.5024 132.8928 0054368 194.7437 165.2162 14.30192923557712
GAOFEN-8                
1 40701U 15030A   26065.82823779  .00030026  00000+0  69657-3 0  9992
2 40701  97.6932 253.3141 0009359 198.3076 161.7835 15.42305662595654
CARBONITE 1 (CBNT-1)    
1 40718U 15032D   26065.85554512  .00005158  00000+0  63665-3 0  9992
2 40718  97.6459 248.2452 0013176 270.5384  89.4320 14.83205737574176
YAOGAN-27               
1 40878U 15040A   26065.85648509  .00000243  00000+0  75211-3 0  9998
2 40878 100.1102  56.7079 0008925  90.3540 269.8597 13.16066748504202
GAOFEN-9 01             
1 40894U 15047A   26065.89467808  .00001571  00000+0  19974-3 0  9997
2 40894  97.6421 106.1815 0028828 114.6051 245.8172 14.82673453565035
YAOGAN-28               
1 41026U 15064A   26065.88132501  .00010302  00000+0  40331-3 0  9995
2 41026  97.2900 206.4332 0010974 186.3546 173.7555 15.25939401575072
YAOGAN-29               
1 41038U 15069A   26065.89317520  .00000436  00000+0  60394-4 0  9999
2 41038  98.0141  94.3145 0002049  41.5354 318.6015 14.82990632555467
