[{"OBJECT_NAME":"WORLDVIEW-3 (WV-3)","OBJECT_ID":"2014-048A","EPOCH":"2026-03-06T19:27:00.107424","MEAN_MOTION":14.84827466,"ECCENTRICITY":3.34e-5,"INCLINATION":97.8639,"RA_OF_ASC_NODE":142.0415,"ARG_OF_PERICENTER":9.6143,"MEAN_ANOMALY":350.5078,"EPHEMERIS_TYPE":0,"CLASSIFICATION_TYPE":"U","NORAD_CAT_ID":40115,"ELEMENT_SET_NO":999,"REV_AT_EPOCH":62671,"BSTAR":0.00017505,"MEAN_MOTION_DOT":1.433e-5,"MEAN_MOTION_DDOT":0},{"OBJECT_NAME":"GAOFEN-2","OBJECT_ID":"2014-049A","EPOCH":"2026-03-06T20:59:42.516960","MEAN_MOTION":14.80766989,"ECCENTRICITY":0.0006852,"INCLINATION":98.0228,"RA_OF_ASC_NODE":130.1352,"ARG_OF_PERICENTER":194.5415,"MEAN_ANOMALY":165.56,"EPHEMERIS_TYPE":0,"CLASSIFICATION_TYPE":"U","NORAD_CAT_ID":40118,"ELEMENT_SET_NO":999,"REV_AT_EPOCH":62409,"BSTAR":0.00015414,"MEAN_MOTION_DOT":1.134e-5,"MEAN_MOTION_DDOT":0},{"OBJECT_NAME":"YAOGAN-21","OBJECT_ID":"2014-053A","EPOCH":"2026-03-06T20:15:02.009664","MEAN_MOTION":15.24869362,"ECCENTRICITY":0.0010184,"INCLINATION":97.1621,"RA_OF_ASC_NODE":110.5077,"ARG_OF_PERICENTER":94.9387,"MEAN_ANOMALY":265.3014,"EPHEMERIS_TYPE":0,"CLASSIFICATION_TYPE":"U","NORAD_CAT_ID":40143,"ELEMENT_SET_NO":999,"REV_AT_EPOCH":63935,"BSTAR":0.0001927,"MEAN_MOTION_DOT":4.728e-5,"MEAN_MOTION_DDOT":0},{"OBJECT_NAME":"YAOGAN-22","OBJECT_ID":"2014-063A","EPOCH":"2026-03-06T19:42:05.344416","MEAN_MOTION":13.15526869,"ECCENTRICITY":0.000668,"INCLINATION":100.7532,"RA_OF_ASC_NODE":215.4606,"ARG_OF_PERICENTER":64.1128,"MEAN_ANOMALY":296.0671,"EPHEMERIS_TYPE":0,"CLASSIFICATION_TYPE":"U","NORAD_CAT_ID":40275,"ELEMENT_SET_NO":999,"REV_AT_EPOCH":54635,"BSTAR":8.9185e-5,"MEAN_MOTION_DOT":-1.3e-7,"MEAN_MOTION_DDOT":0},{"OBJECT_NAME":"ASNARO","OBJECT_ID":"2014-070A","EPOCH":"2026-03-06T19:52:46.401312","MEAN_MOTION":15.19709831,"ECCENTRICITY":0.0007257,"INCLINATION":97.3514,"RA_OF_ASC_NODE":144.6659,"ARG_OF_PERICENTER":151.1584,"MEAN_ANOMALY":209.0053,"EPHEMERIS_TYPE":0,"CLASSIFICATION_TYPE":"U","NORAD_CAT_ID":40298,"ELEMENT_SET_NO":999,"REV_AT_EPOCH":62846,"BSTAR":0.00038204,"MEAN_MOTION_DOT":8.101e-5,"MEAN_MOTION_DDOT":0},{"OBJECT_NAME":"YAOGAN-24","OBJECT_ID":"2014-072A","EPOCH":"2026-03-06T20:44:08.996928","MEAN_MOTION":14.76222749,"ECCENTRICITY":0.0012217,"INCLINATION":98.1303,"RA_OF_ASC_NODE":202.4398,"ARG_OF_PERICENTER":228.0161,"MEAN_ANOMALY":132.0009,"EPHEMERIS_TYPE":0,"CLASSIFICATION_TYPE":"U","NORAD_CAT_ID":40310,"ELEMENT_SET_NO":999,"REV_AT_EPOCH":60862,"BSTAR":0.00019874,"MEAN_MOTION_DOT":1.324e-5,"MEAN_MOTION_DDOT":0},{"OBJECT_NAME":"CBERS 4","OBJECT_ID":"2014-079A","EPOCH":"2026-03-06T20:31:34.785408","MEAN_MOTION":14.35411704,"ECCENTRICITY":7.08e-5,"INCLINATION":98.3486,"RA_OF_ASC_NODE":125.9583,"ARG_OF_PERICENTER":58.7342,"MEAN_ANOMALY":301.3914,"EPHEMERIS_TYPE":0,"CLASSIFICATION_TYPE":"U","NORAD_CAT_ID":40336,"ELEMENT_SET_NO":999,"REV_AT_EPOCH":58927,"BSTAR":2.39e-5,"MEAN_MOTION_DOT":2.6e-7,"MEAN_MOTION_DDOT":0},{"OBJECT_NAME":"YAOGAN-26","OBJECT_ID":"2014-088A","EPOCH":"2026-03-06T21:13:42.019968","MEAN_MOTION":15.43056662,"ECCENTRICITY":0.000723,"INCLINATION":97.0667,"RA_OF_ASC_NODE":68.7925,"ARG_OF_PERICENTER":72.8422,"MEAN_ANOMALY":287.3618,"EPHEMERIS_TYPE":0,"CLASSIFICATION_TYPE":"U","NORAD_CAT_ID":40362,"ELEMENT_SET_NO":999,"REV_AT_EPOCH":62190,"BSTAR":0.00071138,"MEAN_MOTION_DOT":0.0003144,"MEAN_MOTION_DDOT":0},{"OBJECT_NAME":"SMAP","OBJECT_ID":"2015-003A","EPOCH":"2026-03-06T18:56:34.479744","MEAN_MOTION":14.6333485,"ECCENTRICITY":0.0001321,"INCLINATION":98.1312,"RA_OF_ASC_NODE":74.3184,"ARG_OF_PERICENTER":112.5858,"MEAN_ANOMALY":247.5484,"EPHEMERIS_TYPE":0,"CLASSIFICATION_TYPE":"U","NORAD_CAT_ID":40376,"ELEMENT_SET_NO":999,"REV_AT_EPOCH":59264,"BSTAR":0.00016182,"MEAN_MOTION_DOT":7.89e-6,"MEAN_MOTION_DDOT":0},{"OBJECT_NAME":"KOMPSAT-3A","OBJECT_ID":"2015-014A","EPOCH":"2026-03-06T21:07:52.632192","MEAN_MOTION":15.48553566,"ECCENTRICITY":0.0063177,"INCLINATION":97.6875,"RA_OF_ASC_NODE":50.1986,"ARG_OF_PERICENTER":187.6861,"MEAN_ANOMALY":172.3427,"EPHEMERIS_TYPE":0,"CLASSIFICATION_TYPE":"U","NORAD_CAT_ID":40536,"ELEMENT_SET_NO":999,"REV_AT_EPOCH":60595,"BSTAR":0.00053388,"MEAN_MOTION_DOT":0.00030787,"MEAN_MOTION_DDOT":0},{"OBJECT_NAME":"SENTINEL-2A","OBJECT_ID":"2015-028A","EPOCH":"2026-02-25T04:19:12.423360","MEAN_MOTION":14.30192923,"ECCENTRICITY":0.00543683,"INCLINATION":98.5024,"RA_OF_ASC_NODE":132.8928,"ARG_OF_PERICENTER":194.7437,"MEAN_ANOMALY":165.2162,"EPHEMERIS_TYPE":0,"CLASSIFICATION_TYPE":"U","NORAD_CAT_ID":40697,"ELEMENT_SET_NO":999,"REV_AT_EPOCH":55771,"BSTAR":7.6852184e-5,"MEAN_MOTION_DOT":1.59e-6,"MEAN_MOTION_DDOT":0},{"OBJECT_NAME":"GAOFEN-8","OBJECT_ID":"2015-030A","EPOCH":"2026-03-06T19:52:39.745056","MEAN_MOTION":15.42305662,"ECCENTRICITY":0.0009359,"INCLINATION":97.6932,"RA_OF_ASC_NODE":253.3141,"ARG_OF_PERICENTER":198.3076,"MEAN_ANOMALY":161.7835,"EPHEMERIS_TYPE":0,"CLASSIFICATION_TYPE":"U","NORAD_CAT_ID":40701,"ELEMENT_SET_NO":999,"REV_AT_EPOCH":59565,"BSTAR":0.00069657,"MEAN_MOTION_DOT":0.00030026,"MEAN_MOTION_DDOT":0},{"OBJECT_NAME":"CARBONITE 1 (CBNT-1)","OBJECT_ID":"2015-032D","EPOCH":"2026-03-06T20:31:59.098368","MEAN_MOTION":14.83205737,"ECCENTRICITY":0.0013176,"INCLINATION":97.6459,"RA_OF_ASC_NODE":248.2452,"ARG_OF_PERICENTER":270.5384,"MEAN_ANOMALY":89.432,"EPHEMERIS_TYPE":0,"CLASSIFICATION_TYPE":"U","NORAD_CAT_ID":40718,"ELEMENT_SET_NO":999,"REV_AT_EPOCH":57417,"BSTAR":0.00063665,"MEAN_MOTION_DOT":5.158e-5,"MEAN_MOTION_DDOT":0},{"OBJECT_NAME":"YAOGAN-27","OBJECT_ID":"2015-040A","EPOCH":"2026-03-06T20:33:20.311776","MEAN_MOTION":13.16066748,"ECCENTRICITY":0.0008925,"INCLINATION":100.1102,"RA_OF_ASC_NODE":56.7079,"ARG_OF_PERICENTER":90.354,"MEAN_ANOMALY":269.8597,"EPHEMERIS_TYPE":0,"CLASSIFICATION_TYPE":"U","NORAD_CAT_ID":40878,"ELEMENT_SET_NO":999,"REV_AT_EPOCH":50420,"BSTAR":0.00075211,"MEAN_MOTION_DOT":2.43e-6,"MEAN_MOTION_DDOT":0},{"OBJECT_NAME":"GAOFEN-9 01","OBJECT_ID":"2015-047A","EPOCH":"2026-03-06T21:28:20.186112","MEAN_MOTION":14.82673453,"ECCENTRICITY":0.0028828,"INCLINATION":97.6421,"RA_OF_ASC_NODE":106.1815,"ARG_OF_PERICENTER":114.6051,"MEAN_ANOMALY":245.8172,"EPHEMERIS_TYPE":0,"CLASSIFICATION_TYPE":"U","NORAD_CAT_ID":40894,"ELEMENT_SET_NO":999,"REV_AT_EPOCH":56503,"BSTAR":0.00019974,"MEAN_MOTION_DOT":1.571e-5,"MEAN_MOTION_DDOT":0},{"OBJECT_NAME":"YAOGAN-28","OBJECT_ID":"2015-064A","EPOCH":"2026-03-06T21:09:06.480864","MEAN_MOTION":15.25939401,"ECCENTRICITY":0.0010974,"INCLINATION":97.29,"RA_OF_ASC_NODE":206.4332,"ARG_OF_PERICENTER":186.3546,"MEAN_ANOMALY":173.7555,"EPHEMERIS_TYPE":0,"CLASSIFICATION_TYPE":"U","NORAD_CAT_ID":41026,"ELEMENT_SET_NO":999,"REV_AT_EPOCH":57507,"BSTAR":0.00040331,"MEAN_MOTION_DOT":0.00010302,"MEAN_MOTION_DDOT":0},{"OBJECT_NAME":"YAOGAN-29","OBJECT_ID":"2015-069A","EPOCH":"2026-03-06T21:26:10.337280","MEAN_MOTION":14.82990632,"ECCENTRICITY":0.0002049,"INCLINATION":98.0141,"RA_OF_ASC_NODE":94.3145,"ARG_OF_PERICENTER":41.5354,"MEAN_ANOMALY":318.6015,"EPHEMERIS_TYPE":0,"CLASSIFICATION_TYPE":"U","NORAD_CAT_ID":41038,"ELEMENT_SET_NO":999,"REV_AT_EPOCH":55546,"BSTAR":6.0394e-5,"MEAN_MOTION_DOT":4.36e-6,"MEAN_MOTION_DDOT":0}]
